{
  "type": "FeatureCollection",
  "features": [
    {
      "type": "Feature",
      "properties": {
        "norad_id": 57400,
        "name": "TIANMU-1 08",
        "group": "weather",
        "lat": 79.68866482260518,
        "lon": -85.13474680814667,
        "alt_km": 470.9084978611845,
        "timestamp": "2025-12-26T20:30:45.581158+00:00",
        "meta_object_name": "TIANMU-1 08",
        "meta_object_id": "2023-101B",
        "meta_epoch": "2025-12-26T13:48:11.722752",
        "meta_mean_motion": 15.28249667,
        "meta_eccentricity": 0.00068461,
        "meta_inclination": 97.2846,
        "meta_ra_of_asc_node": 49.9152,
        "meta_arg_of_pericenter": 44.3282,
        "meta_mean_anomaly": 315.8505,
        "meta_ephemeris_type": 0,
        "meta_classification_type": "U",
        "meta_norad_cat_id": 57400,
        "meta_element_set_no": 999,
        "meta_rev_at_epoch": 13526,
        "meta_bstar": 0.00027123306,
        "meta_mean_motion_dot": 7.398e-05,
        "meta_mean_motion_ddot": 0,
        "tle_line1": "1 57400U 23101B   25360.57513568  .00007398  00000+0  27123-3 0  9993",
        "tle_line2": "2 57400  97.2846  49.9152 0006846  44.3282 315.8505 15.28249667135265"
      },
      "geometry": {
        "type": "Point",
        "coordinates": [
          -85.13474680814667,
          79.68866482260518
        ]
      }
    },
    {
      "type": "Feature",
      "properties": {
        "norad_id": 57401,
        "name": "TIANMU-1 09",
        "group": "weather",
        "lat": 8.210500068085627,
        "lon": -129.24850072479052,
        "alt_km": 485.40845409728536,
        "timestamp": "2025-12-26T20:30:45.581169+00:00",
        "meta_object_name": "TIANMU-1 09",
        "meta_object_id": "2023-101C",
        "meta_epoch": "2025-12-26T15:03:01.556640",
        "meta_mean_motion": 15.2828744,
        "meta_eccentricity": 0.00061107,
        "meta_inclination": 97.2803,
        "meta_ra_of_asc_node": 49.4721,
        "meta_arg_of_pericenter": 45.4914,
        "meta_mean_anomaly": 314.6824,
        "meta_ephemeris_type": 0,
        "meta_classification_type": "U",
        "meta_norad_cat_id": 57401,
        "meta_element_set_no": 999,
        "meta_rev_at_epoch": 13527,
        "meta_bstar": 0.00029821077,
        "meta_mean_motion_dot": 8.15e-05,
        "meta_mean_motion_ddot": 0,
        "tle_line1": "1 57401U 23101C   25360.62710135  .00008150  00000+0  29821-3 0  9993",
        "tle_line2": "2 57401  97.2803  49.4721 0006110  45.4914 314.6824 15.28287440135277"
      },
      "geometry": {
        "type": "Point",
        "coordinates": [
          -129.24850072479052,
          8.210500068085627
        ]
      }
    },
    {
      "type": "Feature",
      "properties": {
        "norad_id": 57402,
        "name": "TIANMU-1 10",
        "group": "weather",
        "lat": -17.005090839839035,
        "lon": 52.802409752404614,
        "alt_km": 483.1702813912161,
        "timestamp": "2025-12-26T20:30:45.581178+00:00",
        "meta_object_name": "TIANMU-1 10",
        "meta_object_id": "2023-101D",
        "meta_epoch": "2025-12-26T14:18:06.573024",
        "meta_mean_motion": 15.28278722,
        "meta_eccentricity": 0.00078333,
        "meta_inclination": 97.2883,
        "meta_ra_of_asc_node": 50.306,
        "meta_arg_of_pericenter": 42.6013,
        "meta_mean_anomaly": 317.5834,
        "meta_ephemeris_type": 0,
        "meta_classification_type": "U",
        "meta_norad_cat_id": 57402,
        "meta_element_set_no": 999,
        "meta_rev_at_epoch": 13526,
        "meta_bstar": 0.0002780445,
        "meta_mean_motion_dot": 7.594e-05,
        "meta_mean_motion_ddot": 0,
        "tle_line1": "1 57402U 23101D   25360.59590941  .00007594  00000+0  27804-3 0  9991",
        "tle_line2": "2 57402  97.2883  50.3060 0007833  42.6013 317.5834 15.28278722135260"
      },
      "geometry": {
        "type": "Point",
        "coordinates": [
          52.802409752404614,
          -17.005090839839035
        ]
      }
    },
    {
      "type": "Feature",
      "properties": {
        "norad_id": 57490,
        "name": "FENGYUN 3F",
        "group": "weather",
        "lat": 29.568259719160764,
        "lon": -106.09339784276129,
        "alt_km": 823.6584867614538,
        "timestamp": "2025-12-26T20:30:45.581188+00:00",
        "meta_object_name": "FENGYUN 3F",
        "meta_object_id": "2023-111A",
        "meta_epoch": "2025-12-26T14:44:06.614880",
        "meta_mean_motion": 14.19897205,
        "meta_eccentricity": 8.614e-05,
        "meta_inclination": 98.7065,
        "meta_ra_of_asc_node": 68.6824,
        "meta_arg_of_pericenter": 117.8701,
        "meta_mean_anomaly": 242.2563,
        "meta_ephemeris_type": 0,
        "meta_classification_type": "U",
        "meta_norad_cat_id": 57490,
        "meta_element_set_no": 999,
        "meta_rev_at_epoch": 12437,
        "meta_bstar": 5.6989476e-05,
        "meta_mean_motion_dot": 7.7e-07,
        "meta_mean_motion_ddot": 0,
        "tle_line1": "1 57490U 23111A   25360.61396545  .00000077  00000+0  56989-4 0  9992",
        "tle_line2": "2 57490  98.7065  68.6824 0000861 117.8701 242.2563 14.19897205124373"
      },
      "geometry": {
        "type": "Point",
        "coordinates": [
          -106.09339784276129,
          29.568259719160764
        ]
      }
    },
    {
      "type": "Feature",
      "properties": {
        "norad_id": 58584,
        "name": "ARKTIKA-M 2",
        "group": "weather",
        "lat": 44.83598935464054,
        "lon": -156.51263158121873,
        "alt_km": 25268.17188809969,
        "timestamp": "2025-12-26T20:30:45.581200+00:00",
        "meta_object_name": "ARKTIKA-M 2",
        "meta_object_id": "2023-198A",
        "meta_epoch": "2025-12-25T18:56:09.299328",
        "meta_mean_motion": 2.00602256,
        "meta_eccentricity": 0.686608,
        "meta_inclination": 63.2255,
        "meta_ra_of_asc_node": 173.4714,
        "meta_arg_of_pericenter": 268.0516,
        "meta_mean_anomaly": 18.8422,
        "meta_ephemeris_type": 0,
        "meta_classification_type": "U",
        "meta_norad_cat_id": 58584,
        "meta_element_set_no": 999,
        "meta_rev_at_epoch": 1484,
        "meta_bstar": 0,
        "meta_mean_motion_dot": 2.31e-06,
        "meta_mean_motion_ddot": 0,
        "tle_line1": "1 58584U 23198A   25359.78899652  .00000231  00000+0  00000+0 0  9995",
        "tle_line2": "2 58584  63.2255 173.4714 6866080 268.0516  18.8422  2.00602256 14849"
      },
      "geometry": {
        "type": "Point",
        "coordinates": [
          -156.51263158121873,
          44.83598935464054
        ]
      }
    },
    {
      "type": "Feature",
      "properties": {
        "norad_id": 58645,
        "name": "TIANMU-1 11",
        "group": "weather",
        "lat": -14.929798027058395,
        "lon": 22.20524566260154,
        "alt_km": 496.74244670474945,
        "timestamp": "2025-12-26T20:30:45.581211+00:00",
        "meta_object_name": "TIANMU-1 11",
        "meta_object_id": "2023-205A",
        "meta_epoch": "2025-12-26T14:16:42.512736",
        "meta_mean_motion": 15.24766803,
        "meta_eccentricity": 0.00075835,
        "meta_inclination": 97.36,
        "meta_ra_of_asc_node": 19.9749,
        "meta_arg_of_pericenter": 250.9389,
        "meta_mean_anomaly": 109.1027,
        "meta_ephemeris_type": 0,
        "meta_classification_type": "U",
        "meta_norad_cat_id": 58645,
        "meta_element_set_no": 999,
        "meta_rev_at_epoch": 11120,
        "meta_bstar": 0.00027575166,
        "meta_mean_motion_dot": 6.768e-05,
        "meta_mean_motion_ddot": 0,
        "tle_line1": "1 58645U 23205A   25360.59493649  .00006768  00000+0  27575-3 0  9990",
        "tle_line2": "2 58645  97.3600  19.9749 0007583 250.9389 109.1027 15.24766803111200"
      },
      "geometry": {
        "type": "Point",
        "coordinates": [
          22.20524566260154,
          -14.929798027058395
        ]
      }
    },
    {
      "type": "Feature",
      "properties": {
        "norad_id": 58646,
        "name": "TIANMU-1 12",
        "group": "weather",
        "lat": -11.34379315363443,
        "lon": -161.45478240392183,
        "alt_km": 492.8905094765014,
        "timestamp": "2025-12-26T20:30:45.581220+00:00",
        "meta_object_name": "TIANMU-1 12",
        "meta_object_id": "2023-205B",
        "meta_epoch": "2025-12-26T14:57:01.087200",
        "meta_mean_motion": 15.24654046,
        "meta_eccentricity": 0.00060919,
        "meta_inclination": 97.3588,
        "meta_ra_of_asc_node": 19.8032,
        "meta_arg_of_pericenter": 228.5191,
        "meta_mean_anomaly": 131.5524,
        "meta_ephemeris_type": 0,
        "meta_classification_type": "U",
        "meta_norad_cat_id": 58646,
        "meta_element_set_no": 999,
        "meta_rev_at_epoch": 11119,
        "meta_bstar": 0.00027563857,
        "meta_mean_motion_dot": 6.74e-05,
        "meta_mean_motion_ddot": 0,
        "tle_line1": "1 58646U 23205B   25360.62292925  .00006740  00000+0  27564-3 0  9997",
        "tle_line2": "2 58646  97.3588  19.8032 0006091 228.5191 131.5524 15.24654046111199"
      },
      "geometry": {
        "type": "Point",
        "coordinates": [
          -161.45478240392183,
          -11.34379315363443
        ]
      }
    }
  ]
}